[{"OBJECT_NAME":"STARLINK-2342","OBJECT_ID":"2021-021Z","EPOCH":"2026-03-10T00:00:02.999808","MEAN_MOTION":15.40904112,"ECCENTRICITY":0.00016531,"INCLINATION":53.1612,"RA_OF_ASC_NODE":266.4602,"ARG_OF_PERICENTER":74.5367,"MEAN_ANOMALY":257.8854,"EPHEMERIS_TYPE":0,"CLASSIFICATION_TYPE":"U","NORAD_CAT_ID":47883,"ELEMENT_SET_NO":999,"REV_AT_EPOCH":571,"BSTAR":0.033080837,"MEAN_MOTION_DOT":0.01534298,"MEAN_MOTION_DDOT":0},{"OBJECT_NAME":"CHOLLIMA-1 R\/B","OBJECT_ID":"2023-179B","EPOCH":"2026-03-09T17:02:54.070656","MEAN_MOTION":15.57199022,"ECCENTRICITY":0.00173492,"INCLINATION":97.3179,"RA_OF_ASC_NODE":332.7764,"ARG_OF_PERICENTER":155.2544,"MEAN_ANOMALY":204.9547,"EPHEMERIS_TYPE":0,"CLASSIFICATION_TYPE":"U","NORAD_CAT_ID":58401,"ELEMENT_SET_NO":999,"REV_AT_EPOCH":12899,"BSTAR":0.00044530168,"MEAN_MOTION_DOT":0.00032569,"MEAN_MOTION_DDOT":0}]
